{"type": "FeatureCollection", "features": [{"type": "Feature", "properties": {"norad_id": 24876, "name": "GPS BIIR-2  (PRN 13)", "group": "gps-ops", "lat": 4.161351567499895, "lon": 109.08614975805459, "alt_km": 20022.464054954733, "timestamp": "2025-12-02T06:27:53.272574+00:00", "meta": {"OBJECT_NAME": "GPS BIIR-2  (PRN 13)", "OBJECT_ID": "1997-035A", "EPOCH": "2025-12-01T06:22:04.295136", "MEAN_MOTION": 2.00563437, "ECCENTRICITY": 0.00966527, "INCLINATION": 55.8895, "RA_OF_ASC_NODE": 106.3177, "ARG_OF_PERICENTER": 57.0227, "MEAN_ANOMALY": 303.8812, "EPHEMERIS_TYPE": 0, "CLASSIFICATION_TYPE": "U", "NORAD_CAT_ID": 24876, "ELEMENT_SET_NO": 999, "REV_AT_EPOCH": 20798, "BSTAR": 0, "MEAN_MOTION_DOT": 4.1e-07, "MEAN_MOTION_DDOT": 0}, "tle": {"line1": "1 24876U 97035A   25335.26532749  .00000041  00000+0  00000+0 0  9990", "line2": "2 24876  55.8895 106.3177 0096652  57.0227 303.8812  2.00563437207986"}}, "geometry": {"type": "Point", "coordinates": [109.08614975805459, 4.161351567499895]}}, {"type": "Feature", "properties": {"norad_id": 26360, "name": "GPS BIIR-4  (PRN 20)", "group": "gps-ops", "lat": 54.37625288046001, "lon": 129.98137330596265, "alt_km": 20258.138091935427, "timestamp": "2025-12-02T06:27:53.272602+00:00", "meta": {"OBJECT_NAME": "GPS BIIR-4  (PRN 20)", "OBJECT_ID": "2000-025A", "EPOCH": "2025-12-01T03:33:33.460416", "MEAN_MOTION": 2.00568535, "ECCENTRICITY": 0.00387571, "INCLINATION": 55.0383, "RA_OF_ASC_NODE": 27.307, "ARG_OF_PERICENTER": 240.8414, "MEAN_ANOMALY": 127.3277, "EPHEMERIS_TYPE": 0, "CLASSIFICATION_TYPE": "U", "NORAD_CAT_ID": 26360, "ELEMENT_SET_NO": 999, "REV_AT_EPOCH": 18730, "BSTAR": 0, "MEAN_MOTION_DOT": -6.8e-07, "MEAN_MOTION_DDOT": 0}, "tle": {"line1": "1 26360U 00025A   25335.14830394 -.00000068  00000+0  00000+0 0  9997", "line2": "2 26360  55.0383  27.3070 0038757 240.8414 127.3277  2.00568535187307"}}, "geometry": {"type": "Point", "coordinates": [129.98137330596265, 54.37625288046001]}}, {"type": "Feature", "properties": {"norad_id": 26407, "name": "GPS BIIR-5  (PRN 22)", "group": "gps-ops", "lat": -46.78622457538545, "lon": 174.589204591929, "alt_km": 19852.274535609828, "timestamp": "2025-12-02T06:27:53.272618+00:00", "meta": {"OBJECT_NAME": "GPS BIIR-5  (PRN 22)", "OBJECT_ID": "2000-040A", "EPOCH": "2025-12-01T02:24:31.416768", "MEAN_MOTION": 2.00567692, "ECCENTRICITY": 0.01266559, "INCLINATION": 54.8937, "RA_OF_ASC_NODE": 223.032, "ARG_OF_PERICENTER": 301.5907, "MEAN_ANOMALY": 231.5341, "EPHEMERIS_TYPE": 0, "CLASSIFICATION_TYPE": "U", "NORAD_CAT_ID": 26407, "ELEMENT_SET_NO": 999, "REV_AT_EPOCH": 18597, "BSTAR": 0, "MEAN_MOTION_DOT": 4.5e-07, "MEAN_MOTION_DDOT": 0}, "tle": {"line1": "1 26407U 00040A   25335.10036362  .00000045  00000+0  00000+0 0  9999", "line2": "2 26407  54.8937 223.0320 0126655 301.5907 231.5341  2.00567692185975"}}, "geometry": {"type": "Point", "coordinates": [174.589204591929, -46.78622457538545]}}, {"type": "Feature", "properties": {"norad_id": 27663, "name": "GPS BIIR-8  (PRN 16)", "group": "gps-ops", "lat": 51.72505730024818, "lon": -74.41574199676063, "alt_km": 19812.257837319266, "timestamp": "2025-12-02T06:27:53.272632+00:00", "meta": {"OBJECT_NAME": "GPS BIIR-8  (PRN 16)", "OBJECT_ID": "2003-005A", "EPOCH": "2025-12-01T05:43:03.661248", "MEAN_MOTION": 2.00571434, "ECCENTRICITY": 0.0146981, "INCLINATION": 54.9264, "RA_OF_ASC_NODE": 222.8358, "ARG_OF_PERICENTER": 51.639, "MEAN_ANOMALY": 356.7865, "EPHEMERIS_TYPE": 0, "CLASSIFICATION_TYPE": "U", "NORAD_CAT_ID": 27663, "ELEMENT_SET_NO": 999, "REV_AT_EPOCH": 16734, "BSTAR": 0, "MEAN_MOTION_DOT": 4.7e-07, "MEAN_MOTION_DDOT": 0}, "tle": {"line1": "1 27663U 03005A   25335.23823682  .00000047  00000+0  00000+0 0  9993", "line2": "2 27663  54.9264 222.8358 0146981  51.6390 356.7865  2.00571434167346"}}, "geometry": {"type": "Point", "coordinates": [-74.41574199676063, 51.72505730024818]}}, {"type": "Feature", "properties": {"norad_id": 28190, "name": "GPS BIIR-11 (PRN 19)", "group": "gps-ops", "lat": -41.06056386951717, "lon": 141.19846897941753, "alt_km": 20067.171755623633, "timestamp": "2025-12-02T06:27:53.272645+00:00", "meta": {"OBJECT_NAME": "GPS BIIR-11 (PRN 19)", "OBJECT_ID": "2004-009A", "EPOCH": "2025-11-26T05:14:39.537024", "MEAN_MOTION": 2.00561394, "ECCENTRICITY": 0.01080929, "INCLINATION": 55.0011, "RA_OF_ASC_NODE": 283.885, "ARG_OF_PERICENTER": 167.3745, "MEAN_ANOMALY": 15.773, "EPHEMERIS_TYPE": 0, "CLASSIFICATION_TYPE": "U", "NORAD_CAT_ID": 28190, "ELEMENT_SET_NO": 999, "REV_AT_EPOCH": 15887, "BSTAR": 0, "MEAN_MOTION_DOT": -2.4e-07, "MEAN_MOTION_DDOT": 0}, "tle": {"line1": "1 28190U 04009A   25330.21851316 -.00000024  00000+0  00000+0 0  9998", "line2": "2 28190  55.0011 283.8850 0108092 167.3745  15.7730  2.00561394158873"}}, "geometry": {"type": "Point", "coordinates": [141.19846897941753, -41.06056386951717]}}, {"type": "Feature", "properties": {"norad_id": 28474, "name": "GPS BIIR-13 (PRN 02)", "group": "gps-ops", "lat": -49.90422094811226, "lon": -82.72784115021709, "alt_km": 19754.101331061498, "timestamp": "2025-12-02T06:27:53.272657+00:00", "meta": {"OBJECT_NAME": "GPS BIIR-13 (PRN 02)", "OBJECT_ID": "2004-045A", "EPOCH": "2025-12-01T07:58:00.952608", "MEAN_MOTION": 2.00568823, "ECCENTRICITY": 0.01705095, "INCLINATION": 55.2462, "RA_OF_ASC_NODE": 332.865, "ARG_OF_PERICENTER": 308.7554, "MEAN_ANOMALY": 26.3129, "EPHEMERIS_TYPE": 0, "CLASSIFICATION_TYPE": "U", "NORAD_CAT_ID": 28474, "ELEMENT_SET_NO": 999, "REV_AT_EPOCH": 15445, "BSTAR": 0, "MEAN_MOTION_DOT": -5.6e-07, "MEAN_MOTION_DDOT": 0}, "tle": {"line1": "1 28474U 04045A   25335.33195547 -.00000056  00000+0  00000+0 0  9993", "line2": "2 28474  55.2462 332.8650 0170509 308.7554  26.3129  2.00568823154458"}}, "geometry": {"type": "Point", "coordinates": [-82.72784115021709, -49.90422094811226]}}, {"type": "Feature", "properties": {"norad_id": 28874, "name": "GPS BIIRM-1 (PRN 17)", "group": "gps-ops", "lat": -50.22857958103918, "lon": 158.20035517794818, "alt_km": 19931.698173888322, "timestamp": "2025-12-02T06:27:53.272669+00:00", "meta": {"OBJECT_NAME": "GPS BIIRM-1 (PRN 17)", "OBJECT_ID": "2005-038A", "EPOCH": "2025-11-30T16:16:45.058656", "MEAN_MOTION": 2.00548966, "ECCENTRICITY": 0.01328775, "INCLINATION": 55.0429, "RA_OF_ASC_NODE": 281.1867, "ARG_OF_PERICENTER": 293.3584, "MEAN_ANOMALY": 248.5646, "EPHEMERIS_TYPE": 0, "CLASSIFICATION_TYPE": "U", "NORAD_CAT_ID": 28874, "ELEMENT_SET_NO": 999, "REV_AT_EPOCH": 14785, "BSTAR": 0, "MEAN_MOTION_DOT": -4.1e-07, "MEAN_MOTION_DDOT": 0}, "tle": {"line1": "1 28874U 05038A   25334.67829929 -.00000041  00000+0  00000+0 0  9998", "line2": "2 28874  55.0429 281.1867 0132877 293.3584 248.5646  2.00548966147851"}}, "geometry": {"type": "Point", "coordinates": [158.20035517794818, -50.22857958103918]}}, {"type": "Feature", "properties": {"norad_id": 29486, "name": "GPS BIIRM-2 (PRN 31)", "group": "gps-ops", "lat": 19.643151832821424, "lon": -35.50651448352989, "alt_km": 20246.218873746657, "timestamp": "2025-12-02T06:27:53.272680+00:00", "meta": {"OBJECT_NAME": "GPS BIIRM-2 (PRN 31)", "OBJECT_ID": "2006-042A", "EPOCH": "2025-12-01T13:45:36.640800", "MEAN_MOTION": 2.00554492, "ECCENTRICITY": 0.01073693, "INCLINATION": 54.6925, "RA_OF_ASC_NODE": 159.184, "ARG_OF_PERICENTER": 51.6942, "MEAN_ANOMALY": 320.2253, "EPHEMERIS_TYPE": 0, "CLASSIFICATION_TYPE": "U", "NORAD_CAT_ID": 29486, "ELEMENT_SET_NO": 999, "REV_AT_EPOCH": 14043, "BSTAR": 0, "MEAN_MOTION_DOT": 1.26e-06, "MEAN_MOTION_DDOT": 0}, "tle": {"line1": "1 29486U 06042A   25335.57334075  .00000126  00000+0  00000+0 0  9990", "line2": "2 29486  54.6925 159.1840 0107369  51.6942 320.2253  2.00554492140433"}}, "geometry": {"type": "Point", "coordinates": [-35.50651448352989, 19.643151832821424]}}, {"type": "Feature", "properties": {"norad_id": 29601, "name": "GPS BIIRM-3 (PRN 12)", "group": "gps-ops", "lat": -25.88669505399695, "lon": 61.69040297637311, "alt_km": 20316.110458079387, "timestamp": "2025-12-02T06:27:53.272692+00:00", "meta": {"OBJECT_NAME": "GPS BIIRM-3 (PRN 12)", "OBJECT_ID": "2006-052A", "EPOCH": "2025-11-30T23:32:34.416960", "MEAN_MOTION": 2.00572625, "ECCENTRICITY": 0.0087464, "INCLINATION": 54.9732, "RA_OF_ASC_NODE": 221.865, "ARG_OF_PERICENTER": 87.3176, "MEAN_ANOMALY": 273.7605, "EPHEMERIS_TYPE": 0, "CLASSIFICATION_TYPE": "U", "NORAD_CAT_ID": 29601, "ELEMENT_SET_NO": 999, "REV_AT_EPOCH": 13943, "BSTAR": 0, "MEAN_MOTION_DOT": 4.7e-07, "MEAN_MOTION_DDOT": 0}, "tle": {"line1": "1 29601U 06052A   25334.98095390  .00000047  00000+0  00000+0 0  9990", "line2": "2 29601  54.9732 221.8650 0087464  87.3176 273.7605  2.00572625139434"}}, "geometry": {"type": "Point", "coordinates": [61.69040297637311, -25.88669505399695]}}, {"type": "Feature", "properties": {"norad_id": 32260, "name": "GPS BIIRM-4 (PRN 15)", "group": "gps-ops", "lat": -8.200716367922121, "lon": 82.15811176417695, "alt_km": 20216.37725799146, "timestamp": "2025-12-02T06:27:53.272704+00:00", "meta": {"OBJECT_NAME": "GPS BIIRM-4 (PRN 15)", "OBJECT_ID": "2007-047A", "EPOCH": "2025-12-01T06:52:15.674592", "MEAN_MOTION": 2.00564902, "ECCENTRICITY": 0.0164402, "INCLINATION": 53.9473, "RA_OF_ASC_NODE": 88.2317, "ARG_OF_PERICENTER": 85.1099, "MEAN_ANOMALY": 276.7472, "EPHEMERIS_TYPE": 0, "CLASSIFICATION_TYPE": "U", "NORAD_CAT_ID": 32260, "ELEMENT_SET_NO": 999, "REV_AT_EPOCH": 13284, "BSTAR": 0, "MEAN_MOTION_DOT": -3e-08, "MEAN_MOTION_DDOT": 0}, "tle": {"line1": "1 32260U 07047A   25335.28629253 -.00000003  00000+0  00000+0 0  9998", "line2": "2 32260  53.9473  88.2317 0164402  85.1099 276.7472  2.00564902132845"}}, "geometry": {"type": "Point", "coordinates": [82.15811176417695, -8.200716367922121]}}]}